{
  "type": "FeatureCollection",
  "features": [
    {
      "type": "Feature",
      "properties": {
        "norad_id": 33901,
        "name": "COSMOS 2251 DEB",
        "group": "cosmos-2251-debris",
        "lat": 32.573305468052055,
        "lon": 49.42368581862975,
        "alt_km": 529.5663178270615,
        "timestamp": "2025-12-17T17:50:19.643458+00:00",
        "meta_object_name": "COSMOS 2251 DEB",
        "meta_object_id": "1993-036DE",
        "meta_epoch": "2025-12-17T05:01:17.750208",
        "meta_mean_motion": 15.16434287,
        "meta_eccentricity": 0.00308958,
        "meta_inclination": 73.7746,
        "meta_ra_of_asc_node": 39.8322,
        "meta_arg_of_pericenter": 171.6325,
        "meta_mean_anomaly": 188.5391,
        "meta_ephemeris_type": 0,
        "meta_classification_type": "U",
        "meta_norad_cat_id": 33901,
        "meta_element_set_no": 999,
        "meta_rev_at_epoch": 89581,
        "meta_bstar": 0.0022590482,
        "meta_mean_motion_dot": 0.00044708,
        "meta_mean_motion_ddot": 0,
        "tle_line1": "1 33901U 93036DE  25351.20923322  .00044708  00000+0  22590-2 0  9998",
        "tle_line2": "2 33901  73.7746  39.8322 0030895 171.6325 188.5391 15.16434287895816"
      },
      "geometry": {
        "type": "Point",
        "coordinates": [
          49.42368581862975,
          32.573305468052055
        ]
      }
    },
    {
      "type": "Feature",
      "properties": {
        "norad_id": 33905,
        "name": "COSMOS 2251 DEB",
        "group": "cosmos-2251-debris",
        "lat": 72.91105408839358,
        "lon": 57.28656354533518,
        "alt_km": 773.516886501543,
        "timestamp": "2025-12-17T17:50:19.643468+00:00",
        "meta_object_name": "COSMOS 2251 DEB",
        "meta_object_id": "1993-036DJ",
        "meta_epoch": "2025-12-15T22:11:28.020768",
        "meta_mean_motion": 14.35398798,
        "meta_eccentricity": 0.00586866,
        "meta_inclination": 73.887,
        "meta_ra_of_asc_node": 310.7489,
        "meta_arg_of_pericenter": 199.6032,
        "meta_mean_anomaly": 222.7358,
        "meta_ephemeris_type": 0,
        "meta_classification_type": "U",
        "meta_norad_cat_id": 33905,
        "meta_element_set_no": 999,
        "meta_rev_at_epoch": 87733,
        "meta_bstar": 0.00049785438,
        "meta_mean_motion_dot": 1.43e-05,
        "meta_mean_motion_ddot": 0,
        "tle_line1": "1 33905U 93036DJ  25349.92462987  .00001430  00000+0  49785-3 0  9994",
        "tle_line2": "2 33905  73.8870 310.7489 0058686 199.6032 222.7358 14.35398798877334"
      },
      "geometry": {
        "type": "Point",
        "coordinates": [
          57.28656354533518,
          72.91105408839358
        ]
      }
    },
    {
      "type": "Feature",
      "properties": {
        "norad_id": 33906,
        "name": "COSMOS 2251 DEB",
        "group": "cosmos-2251-debris",
        "lat": 12.000789248503615,
        "lon": -44.54460278720459,
        "alt_km": 681.1172281589406,
        "timestamp": "2025-12-17T17:50:19.643478+00:00",
        "meta_object_name": "COSMOS 2251 DEB",
        "meta_object_id": "1993-036DK",
        "meta_epoch": "2025-12-17T08:25:58.563264",
        "meta_mean_motion": 14.57169941,
        "meta_eccentricity": 0.00368112,
        "meta_inclination": 74.0301,
        "meta_ra_of_asc_node": 312.7099,
        "meta_arg_of_pericenter": 341.4661,
        "meta_mean_anomaly": 135.8625,
        "meta_ephemeris_type": 0,
        "meta_classification_type": "U",
        "meta_norad_cat_id": 33906,
        "meta_element_set_no": 999,
        "meta_rev_at_epoch": 88075,
        "meta_bstar": 0.0015367895,
        "meta_mean_motion_dot": 6.977e-05,
        "meta_mean_motion_ddot": 0,
        "tle_line1": "1 33906U 93036DK  25351.35137226  .00006977  00000+0  15368-2 0  9990",
        "tle_line2": "2 33906  74.0301 312.7099 0036811 341.4661 135.8625 14.57169941880758"
      },
      "geometry": {
        "type": "Point",
        "coordinates": [
          -44.54460278720459,
          12.000789248503615
        ]
      }
    },
    {
      "type": "Feature",
      "properties": {
        "norad_id": 33907,
        "name": "COSMOS 2251 DEB",
        "group": "cosmos-2251-debris",
        "lat": -44.59186689728254,
        "lon": -139.08186848708755,
        "alt_km": 864.2213608096745,
        "timestamp": "2025-12-17T17:50:19.643489+00:00",
        "meta_object_name": "COSMOS 2251 DEB",
        "meta_object_id": "1993-036DL",
        "meta_epoch": "2025-12-17T03:39:15.429888",
        "meta_mean_motion": 14.30545392,
        "meta_eccentricity": 0.01119341,
        "meta_inclination": 74.0704,
        "meta_ra_of_asc_node": 25.6378,
        "meta_arg_of_pericenter": 79.7916,
        "meta_mean_anomaly": 343.821,
        "meta_ephemeris_type": 0,
        "meta_classification_type": "U",
        "meta_norad_cat_id": 33907,
        "meta_element_set_no": 999,
        "meta_rev_at_epoch": 86643,
        "meta_bstar": 0.0014165033,
        "meta_mean_motion_dot": 3.932e-05,
        "meta_mean_motion_ddot": 0,
        "tle_line1": "1 33907U 93036DL  25351.15226192  .00003932  00000+0  14165-2 0  9992",
        "tle_line2": "2 33907  74.0704  25.6378 0111934  79.7916 343.8210 14.30545392866439"
      },
      "geometry": {
        "type": "Point",
        "coordinates": [
          -139.08186848708755,
          -44.59186689728254
        ]
      }
    },
    {
      "type": "Feature",
      "properties": {
        "norad_id": 33908,
        "name": "COSMOS 2251 DEB",
        "group": "cosmos-2251-debris",
        "lat": -17.61072945183465,
        "lon": 22.16934484379527,
        "alt_km": 721.9733661460496,
        "timestamp": "2025-12-17T17:50:19.643499+00:00",
        "meta_object_name": "COSMOS 2251 DEB",
        "meta_object_id": "1993-036DM",
        "meta_epoch": "2025-12-16T23:49:40.585440",
        "meta_mean_motion": 14.07373523,
        "meta_eccentricity": 0.02227545,
        "meta_inclination": 73.8375,
        "meta_ra_of_asc_node": 198.2188,
        "meta_arg_of_pericenter": 220.953,
        "meta_mean_anomaly": 137.4694,
        "meta_ephemeris_type": 0,
        "meta_classification_type": "U",
        "meta_norad_cat_id": 33908,
        "meta_element_set_no": 999,
        "meta_rev_at_epoch": 85533,
        "meta_bstar": 0.0015294469,
        "meta_mean_motion_dot": 3.198e-05,
        "meta_mean_motion_ddot": 0,
        "tle_line1": "1 33908U 93036DM  25350.99283085  .00003198  00000+0  15294-2 0  9996",
        "tle_line2": "2 33908  73.8375 198.2188 0222754 220.9530 137.4694 14.07373523855331"
      },
      "geometry": {
        "type": "Point",
        "coordinates": [
          22.16934484379527,
          -17.61072945183465
        ]
      }
    },
    {
      "type": "Feature",
      "properties": {
        "norad_id": 33911,
        "name": "COSMOS 2251 DEB",
        "group": "cosmos-2251-debris",
        "lat": 69.04649286883942,
        "lon": -76.03915110763826,
        "alt_km": 628.5465937033769,
        "timestamp": "2025-12-17T17:50:19.643510+00:00",
        "meta_object_name": "COSMOS 2251 DEB",
        "meta_object_id": "1993-036DQ",
        "meta_epoch": "2025-12-16T12:19:27.835104",
        "meta_mean_motion": 14.74948598,
        "meta_eccentricity": 0.00141449,
        "meta_inclination": 74.0899,
        "meta_ra_of_asc_node": 154.5037,
        "meta_arg_of_pericenter": 92.4217,
        "meta_mean_anomaly": 324.165,
        "meta_ephemeris_type": 0,
        "meta_classification_type": "U",
        "meta_norad_cat_id": 33911,
        "meta_element_set_no": 999,
        "meta_rev_at_epoch": 88700,
        "meta_bstar": 0.0014509711,
        "meta_mean_motion_dot": 9.748e-05,
        "meta_mean_motion_ddot": 0,
        "tle_line1": "1 33911U 93036DQ  25350.51351661  .00009748  00000+0  14510-2 0  9991",
        "tle_line2": "2 33911  74.0899 154.5037 0014144  92.4217 324.1650 14.74948598887003"
      },
      "geometry": {
        "type": "Point",
        "coordinates": [
          -76.03915110763826,
          69.04649286883942
        ]
      }
    },
    {
      "type": "Feature",
      "properties": {
        "norad_id": 33912,
        "name": "COSMOS 2251 DEB",
        "group": "cosmos-2251-debris",
        "lat": -59.33316252904005,
        "lon": 151.42871672675682,
        "alt_km": 719.7322635231139,
        "timestamp": "2025-12-17T17:50:19.643520+00:00",
        "meta_object_name": "COSMOS 2251 DEB",
        "meta_object_id": "1993-036DR",
        "meta_epoch": "2025-12-16T22:49:14.026656",
        "meta_mean_motion": 14.51918638,
        "meta_eccentricity": 0.00114126,
        "meta_inclination": 74.0328,
        "meta_ra_of_asc_node": 181.7923,
        "meta_arg_of_pericenter": 260.6615,
        "meta_mean_anomaly": 215.5914,
        "meta_ephemeris_type": 0,
        "meta_classification_type": "U",
        "meta_norad_cat_id": 33912,
        "meta_element_set_no": 999,
        "meta_rev_at_epoch": 88494,
        "meta_bstar": 0.00056247411,
        "meta_mean_motion_dot": 2.243e-05,
        "meta_mean_motion_ddot": 0,
        "tle_line1": "1 33912U 93036DR  25350.95085679  .00002243  00000+0  56247-3 0  9990",
        "tle_line2": "2 33912  74.0328 181.7923 0011412 260.6615 215.5914 14.51918638884946"
      },
      "geometry": {
        "type": "Point",
        "coordinates": [
          151.42871672675682,
          -59.33316252904005
        ]
      }
    }
  ]
}